[
  {
    "OBJECT_NAME": "STARLINK-4007",
    "OBJECT_ID": "22053BD",
    "EPOCH": "2025-11-11T06:56:03.117408",
    "MEAN_MOTION": 15.08843241,
    "ECCENTRICITY": 0.0001409,
    "INCLINATION": 53.2176,
    "RA_OF_ASC_NODE": 305.527,
    "ARG_OF_PERICENTER": 95.1302,
    "MEAN_ANOMALY": 264.9851,
    "EPHEMERIS_TYPE": 0,
    "CLASSIFICATION_TYPE": "U",
    "NORAD_CAT_ID": 52707,
    "ELEMENT_SET_NO": 999,
    "REV_AT_EPOCH": 19350,
    "BSTAR": 3.9655000000000006e-05,
    "MEAN_MOTION_DOT": 3.43e-06,
    "MEAN_MOTION_DDOT": 0.0,
    "TLE_LINE1": "1 52707U 22053BD  25315.28892497  .00000343  00000+0  39655-4 0  9999",
    "TLE_LINE2": "2 52707  53.2176 305.5270 0001409  95.1302 264.9851 15.08843241193502",
    "COMMENT": "Grouped by shell and plane from TLE"
  },
  {
    "OBJECT_NAME": "STARLINK-3962",
    "OBJECT_ID": "22053BE",
    "EPOCH": "2025-11-11T06:24:16.016256",
    "MEAN_MOTION": 15.08842607,
    "ECCENTRICITY": 0.000131,
    "INCLINATION": 53.2175,
    "RA_OF_ASC_NODE": 305.7314,
    "ARG_OF_PERICENTER": 90.6922,
    "MEAN_ANOMALY": 269.4221,
    "EPHEMERIS_TYPE": 0,
    "CLASSIFICATION_TYPE": "U",
    "NORAD_CAT_ID": 52708,
    "ELEMENT_SET_NO": 999,
    "REV_AT_EPOCH": 19364,
    "BSTAR": 8.5139e-05,
    "MEAN_MOTION_DOT": 1.067e-05,
    "MEAN_MOTION_DDOT": 0.0,
    "TLE_LINE1": "1 52708U 22053BE  25315.26685204  .00001067  00000+0  85139-4 0  9996",
    "TLE_LINE2": "2 52708  53.2175 305.7314 0001310  90.6922 269.4221 15.08842607193643",
    "COMMENT": "Grouped by shell and plane from TLE"
  },
  {
    "OBJECT_NAME": "STARLINK-4052",
    "OBJECT_ID": "22083AR",
    "EPOCH": "2025-11-11T06:08:19.504320",
    "MEAN_MOTION": 15.08848391,
    "ECCENTRICITY": 0.0001332,
    "INCLINATION": 53.2175,
    "RA_OF_ASC_NODE": 305.5494,
    "ARG_OF_PERICENTER": 96.7023,
    "MEAN_ANOMALY": 263.4121,
    "EPHEMERIS_TYPE": 0,
    "CLASSIFICATION_TYPE": "U",
    "NORAD_CAT_ID": 53171,
    "ELEMENT_SET_NO": 999,
    "REV_AT_EPOCH": 18389,
    "BSTAR": 0.00013026,
    "MEAN_MOTION_DOT": 1.786e-05,
    "MEAN_MOTION_DDOT": 0.0,
    "TLE_LINE1": "1 53171U 22083AR  25315.25578130  .00001786  00000+0  13026-3 0  9995",
    "TLE_LINE2": "2 53171  53.2175 305.5494 0001332  96.7023 263.4121 15.08848391183893",
    "COMMENT": "Grouped by shell and plane from TLE"
  },
  {
    "OBJECT_NAME": "STARLINK-4268",
    "OBJECT_ID": "22083BD",
    "EPOCH": "2025-11-11T06:59:22.330752",
    "MEAN_MOTION": 15.08842849,
    "ECCENTRICITY": 0.0002548,
    "INCLINATION": 53.2163,
    "RA_OF_ASC_NODE": 300.5447,
    "ARG_OF_PERICENTER": 106.3998,
    "MEAN_ANOMALY": 253.7275,
    "EPHEMERIS_TYPE": 0,
    "CLASSIFICATION_TYPE": "U",
    "NORAD_CAT_ID": 53183,
    "ELEMENT_SET_NO": 999,
    "REV_AT_EPOCH": 18396,
    "BSTAR": 0.00018458,
    "MEAN_MOTION_DOT": 2.651e-05,
    "MEAN_MOTION_DDOT": 0.0,
    "TLE_LINE1": "1 53183U 22083BD  25315.29123068  .00002651  00000+0  18458-3 0  9994",
    "TLE_LINE2": "2 53183  53.2163 300.5447 0002548 106.3998 253.7275 15.08842849183967",
    "COMMENT": "Grouped by shell and plane from TLE"
  },
  {
    "OBJECT_NAME": "STARLINK-5332",
    "OBJECT_ID": "23010S",
    "EPOCH": "2025-11-11T06:08:02.865408",
    "MEAN_MOTION": 14.98363597,
    "ECCENTRICITY": 0.0003492,
    "INCLINATION": 69.9983,
    "RA_OF_ASC_NODE": 302.991,
    "ARG_OF_PERICENTER": 271.1907,
    "MEAN_ANOMALY": 88.8852,
    "EPHEMERIS_TYPE": 0,
    "CLASSIFICATION_TYPE": "U",
    "NORAD_CAT_ID": 55285,
    "ELEMENT_SET_NO": 999,
    "REV_AT_EPOCH": 15690,
    "BSTAR": 0.00033139000000000004,
    "MEAN_MOTION_DOT": 3.867e-05,
    "MEAN_MOTION_DDOT": 0.0,
    "TLE_LINE1": "1 55285U 23010S   25315.25558872  .00003867  00000+0  33139-3 0  9994",
    "TLE_LINE2": "2 55285  69.9983 302.9910 0003492 271.1907  88.8852 14.98363597156905",
    "COMMENT": "Grouped by shell and plane from TLE"
  },
  {
    "OBJECT_NAME": "STARLINK-5341",
    "OBJECT_ID": "23010U",
    "EPOCH": "2025-11-11T07:19:58.738080",
    "MEAN_MOTION": 14.98331712,
    "ECCENTRICITY": 0.0002999,
    "INCLINATION": 69.9985,
    "RA_OF_ASC_NODE": 303.0896,
    "ARG_OF_PERICENTER": 270.781,
    "MEAN_ANOMALY": 89.3005,
    "EPHEMERIS_TYPE": 0,
    "CLASSIFICATION_TYPE": "U",
    "NORAD_CAT_ID": 55287,
    "ELEMENT_SET_NO": 999,
    "REV_AT_EPOCH": 15602,
    "BSTAR": 3.5605e-05,
    "MEAN_MOTION_DOT": 3.32e-06,
    "MEAN_MOTION_DDOT": 0.0,
    "TLE_LINE1": "1 55287U 23010U   25315.30554095  .00000332  00000+0  35605-4 0  9990",
    "TLE_LINE2": "2 55287  69.9985 303.0896 0002999 270.7810  89.3005 14.98331712156026",
    "COMMENT": "Grouped by shell and plane from TLE"
  },
  {
    "OBJECT_NAME": "STARLINK-5295",
    "OBJECT_ID": "23010AP",
    "EPOCH": "2025-11-11T06:55:55.629120",
    "MEAN_MOTION": 14.98342492,
    "ECCENTRICITY": 0.0002683,
    "INCLINATION": 69.9985,
    "RA_OF_ASC_NODE": 303.1194,
    "ARG_OF_PERICENTER": 272.5901,
    "MEAN_ANOMALY": 87.4951,
    "EPHEMERIS_TYPE": 0,
    "CLASSIFICATION_TYPE": "U",
    "NORAD_CAT_ID": 55306,
    "ELEMENT_SET_NO": 999,
    "REV_AT_EPOCH": 15603,
    "BSTAR": 0.00022401,
    "MEAN_MOTION_DOT": 2.582e-05,
    "MEAN_MOTION_DDOT": 0.0,
    "TLE_LINE1": "1 55306U 23010AP  25315.28883830  .00002582  00000+0  22401-3 0  9999",
    "TLE_LINE2": "2 55306  69.9985 303.1194 0002683 272.5901  87.4951 14.98342492156038",
    "COMMENT": "Grouped by shell and plane from TLE"
  },
  {
    "OBJECT_NAME": "STARLINK-5288",
    "OBJECT_ID": "23010AQ",
    "EPOCH": "2025-11-11T07:01:57.924192",
    "MEAN_MOTION": 14.98331128,
    "ECCENTRICITY": 0.000287,
    "INCLINATION": 69.9977,
    "RA_OF_ASC_NODE": 303.1348,
    "ARG_OF_PERICENTER": 269.7707,
    "MEAN_ANOMALY": 90.3124,
    "EPHEMERIS_TYPE": 0,
    "CLASSIFICATION_TYPE": "U",
    "NORAD_CAT_ID": 55307,
    "ELEMENT_SET_NO": 999,
    "REV_AT_EPOCH": 15603,
    "BSTAR": 0.00014598,
    "MEAN_MOTION_DOT": 1.649e-05,
    "MEAN_MOTION_DDOT": 0.0,
    "TLE_LINE1": "1 55307U 23010AQ  25315.29303153  .00001649  00000+0  14598-3 0  9997",
    "TLE_LINE2": "2 55307  69.9977 303.1348 0002870 269.7707  90.3124 14.98331128156030",
    "COMMENT": "Grouped by shell and plane from TLE"
  },
  {
    "OBJECT_NAME": "STARLINK-5315",
    "OBJECT_ID": "23010AS",
    "EPOCH": "2025-11-11T07:25:57.477792",
    "MEAN_MOTION": 14.98333084,
    "ECCENTRICITY": 0.0003061,
    "INCLINATION": 69.998,
    "RA_OF_ASC_NODE": 302.7918,
    "ARG_OF_PERICENTER": 270.4522,
    "MEAN_ANOMALY": 89.6286,
    "EPHEMERIS_TYPE": 0,
    "CLASSIFICATION_TYPE": "U",
    "NORAD_CAT_ID": 55309,
    "ELEMENT_SET_NO": 999,
    "REV_AT_EPOCH": 15604,
    "BSTAR": 4.8003e-05,
    "MEAN_MOTION_DOT": 4.8e-06,
    "MEAN_MOTION_DDOT": 0.0,
    "TLE_LINE1": "1 55309U 23010AS  25315.30969303  .00000480  00000+0  48003-4 0  9997",
    "TLE_LINE2": "2 55309  69.9980 302.7918 0003061 270.4522  89.6286 14.98333084156045",
    "COMMENT": "Grouped by shell and plane from TLE"
  },
  {
    "OBJECT_NAME": "STARLINK-5309",
    "OBJECT_ID": "23010AT",
    "EPOCH": "2025-11-11T06:43:55.485120",
    "MEAN_MOTION": 14.98333893,
    "ECCENTRICITY": 0.0002915,
    "INCLINATION": 69.9977,
    "RA_OF_ASC_NODE": 303.0888,
    "ARG_OF_PERICENTER": 267.56,
    "MEAN_ANOMALY": 92.5226,
    "EPHEMERIS_TYPE": 0,
    "CLASSIFICATION_TYPE": "U",
    "NORAD_CAT_ID": 55310,
    "ELEMENT_SET_NO": 999,
    "REV_AT_EPOCH": 15603,
    "BSTAR": 1.6248e-05,
    "MEAN_MOTION_DOT": 1.01e-06,
    "MEAN_MOTION_DDOT": 0.0,
    "TLE_LINE1": "1 55310U 23010AT  25315.28050330  .00000101  00000+0  16248-4 0  9993",
    "TLE_LINE2": "2 55310  69.9977 303.0888 0002915 267.5600  92.5226 14.98333893156038",
    "COMMENT": "Grouped by shell and plane from TLE"
  },
  {
    "OBJECT_NAME": "STARLINK-5312",
    "OBJECT_ID": "23010AU",
    "EPOCH": "2025-11-11T06:49:55.835328",
    "MEAN_MOTION": 14.98332504,
    "ECCENTRICITY": 0.0003055,
    "INCLINATION": 69.9977,
    "RA_OF_ASC_NODE": 303.1044,
    "ARG_OF_PERICENTER": 269.1699,
    "MEAN_ANOMALY": 90.911,
    "EPHEMERIS_TYPE": 0,
    "CLASSIFICATION_TYPE": "U",
    "NORAD_CAT_ID": 55311,
    "ELEMENT_SET_NO": 999,
    "REV_AT_EPOCH": 15690,
    "BSTAR": 5.4208e-05,
    "MEAN_MOTION_DOT": 5.54e-06,
    "MEAN_MOTION_DDOT": 0.0,
    "TLE_LINE1": "1 55311U 23010AU  25315.28467402  .00000554  00000+0  54208-4 0  9996",
    "TLE_LINE2": "2 55311  69.9977 303.1044 0003055 269.1699  90.9110 14.98332504156904",
    "COMMENT": "Grouped by shell and plane from TLE"
  },
  {
    "OBJECT_NAME": "STARLINK-5296",
    "OBJECT_ID": "23010AV",
    "EPOCH": "2025-11-11T06:07:50.697696",
    "MEAN_MOTION": 14.98335402,
    "ECCENTRICITY": 0.0003004,
    "INCLINATION": 69.998,
    "RA_OF_ASC_NODE": 302.8883,
    "ARG_OF_PERICENTER": 270.5246,
    "MEAN_ANOMALY": 89.5568,
    "EPHEMERIS_TYPE": 0,
    "CLASSIFICATION_TYPE": "U",
    "NORAD_CAT_ID": 55312,
    "ELEMENT_SET_NO": 999,
    "REV_AT_EPOCH": 15690,
    "BSTAR": 8.8195e-05,
    "MEAN_MOTION_DOT": 9.6e-06,
    "MEAN_MOTION_DDOT": 0.0,
    "TLE_LINE1": "1 55312U 23010AV  25315.25544789  .00000960  00000+0  88195-4 0  9991",
    "TLE_LINE2": "2 55312  69.9980 302.8883 0003004 270.5246  89.5568 14.98335402156905",
    "COMMENT": "Grouped by shell and plane from TLE"
  },
  {
    "OBJECT_NAME": "STARLINK-5313",
    "OBJECT_ID": "23010AW",
    "EPOCH": "2025-11-11T06:31:55.258176",
    "MEAN_MOTION": 14.98327182,
    "ECCENTRICITY": 0.0003086,
    "INCLINATION": 69.9981,
    "RA_OF_ASC_NODE": 303.0591,
    "ARG_OF_PERICENTER": 269.8557,
    "MEAN_ANOMALY": 90.2249,
    "EPHEMERIS_TYPE": 0,
    "CLASSIFICATION_TYPE": "U",
    "NORAD_CAT_ID": 55313,
    "ELEMENT_SET_NO": 999,
    "REV_AT_EPOCH": 15690,
    "BSTAR": 0.0,
    "MEAN_MOTION_DOT": -2.838e-05,
    "MEAN_MOTION_DDOT": 0.0,
    "TLE_LINE1": "1 55313U 23010AW  25315.27216734 -.00002838  00000+0 -23017-3 0  9999",
    "TLE_LINE2": "2 55313  69.9981 303.0591 0003086 269.8557  90.2249 14.98327182156903",
    "COMMENT": "Grouped by shell and plane from TLE"
  }
]